start=new Date('2022-04-25T00:00:00.000Z').valueOf();
sats=[{"NORAD_CAT_ID":"44942","ARG_OF_PERICENTER":"58.9208","GP_ID":"201933552","BSTAR":"-0.00008141000000","REF_FRAME":"TEME","RCS_SIZE":"LARGE","CENTER_NAME":"EARTH","PERIAPSIS":"546.153","ELEMENT_SET_NO":"999","MEAN_MOTION_DDOT":"0.0000000000000","MEAN_ELEMENT_THEORY":"SGP4","EPOCH":"2022-04-24T06:38:19.347648","OBJECT_NAME":"STARLINK-1096","MEAN_MOTION_DOT":"-0.00001494","APOAPSIS":"548.239","CLASSIFICATION_TYPE":"U","COUNTRY_CODE":"US","MEAN_ANOMALY":"301.1929","INCLINATION":"53.0538","PERIOD":"95.592","TIME_SYSTEM":"UTC","RA_OF_ASC_NODE":"200.6485","FILE":"3414186","TLE_LINE1":"1 44942U 20001AE  22114.27661282 -.00001494  00000-0 -81410-4 0  9998","OBJECT_TYPE":"PAYLOAD","SEMIMAJOR_AXIS":"6925.331","LAUNCH_DATE":"2020-01-07","EPHEMERIS_TYPE":"0","DECAY_DATE":null,"REV_AT_EPOCH":"12679","TLE_LINE2":"2 44942  53.0538 200.6485 0001506  58.9208 301.1929 15.06405788126792","OBJECT_ID":"2020-001AE","ECCENTRICITY":"0.00015060","MEAN_MOTION":"15.06405788","SITE":"AFETR"},{"MEAN_MOTION":"15.06401332","SITE":"AFETR","ECCENTRICITY":"0.00014660","TLE_LINE2":"2 44943  53.0539 199.5657 0001466  57.4794 302.6336 15.06401332126823","OBJECT_ID":"2020-001AF","DECAY_DATE":null,"REV_AT_EPOCH":"12682","LAUNCH_DATE":"2020-01-07","EPHEMERIS_TYPE":"0","SEMIMAJOR_AXIS":"6925.344","OBJECT_TYPE":"PAYLOAD","FILE":"3414186","TLE_LINE1":"1 44943U 20001AF  22114.51987688 -.00001188  00000-0 -60888-4 0  9993","RA_OF_ASC_NODE":"199.5657","TIME_SYSTEM":"UTC","PERIOD":"95.592","INCLINATION":"53.0539","COUNTRY_CODE":"US","MEAN_ANOMALY":"302.6336","CLASSIFICATION_TYPE":"U","APOAPSIS":"548.225","MEAN_MOTION_DOT":"-0.00001188","OBJECT_NAME":"STARLINK-1100","EPOCH":"2022-04-24T12:28:37.362432","MEAN_ELEMENT_THEORY":"SGP4","ELEMENT_SET_NO":"999","MEAN_MOTION_DDOT":"0.0000000000000","PERIAPSIS":"546.194","RCS_SIZE":"LARGE","CENTER_NAME":"EARTH","REF_FRAME":"TEME","BSTAR":"-0.00006088800000","GP_ID":"201932800","NORAD_CAT_ID":"44943","ARG_OF_PERICENTER":"57.4794"},{"OBJECT_TYPE":"PAYLOAD","SEMIMAJOR_AXIS":"6925.321","RA_OF_ASC_NODE":"199.6459","FILE":"3414186","TLE_LINE1":"1 44944U 20001AG  22114.50144527  .00001516  00000-0  12064-3 0  9995","TIME_SYSTEM":"UTC","PERIOD":"95.592","MEAN_MOTION":"15.06408960","SITE":"AFETR","ECCENTRICITY":"0.00014870","TLE_LINE2":"2 44944  53.0545 199.6459 0001487  55.8031 304.3099 15.06408960126820","OBJECT_ID":"2020-001AG","EPHEMERIS_TYPE":"0","LAUNCH_DATE":"2020-01-07","DECAY_DATE":null,"REV_AT_EPOCH":"12682","PERIAPSIS":"546.156","MEAN_MOTION_DDOT":"0.0000000000000","ELEMENT_SET_NO":"999","REF_FRAME":"TEME","CENTER_NAME":"EARTH","RCS_SIZE":"LARGE","NORAD_CAT_ID":"44944","ARG_OF_PERICENTER":"55.8031","BSTAR":"0.00012064000000","GP_ID":"201933050","COUNTRY_CODE":"US","MEAN_ANOMALY":"304.3099","INCLINATION":"53.0545","CLASSIFICATION_TYPE":"U","MEAN_MOTION_DOT":"0.00001516","APOAPSIS":"548.216","MEAN_ELEMENT_THEORY":"SGP4","EPOCH":"2022-04-24T12:02:04.871328","OBJECT_NAME":"STARLINK-1108"},{"MEAN_MOTION_DOT":"-0.00000017","APOAPSIS":"548.461","EPOCH":"2022-04-24T12:44:32.855712","MEAN_ELEMENT_THEORY":"SGP4","OBJECT_NAME":"STARLINK-1109","MEAN_ANOMALY":"311.6420","COUNTRY_CODE":"US","INCLINATION":"53.0548","CLASSIFICATION_TYPE":"U","REF_FRAME":"TEME","CENTER_NAME":"EARTH","RCS_SIZE":"LARGE","ARG_OF_PERICENTER":"48.4724","NORAD_CAT_ID":"44945","GP_ID":"201933302","BSTAR":"0.00001779500000","PERIAPSIS":"545.949","ELEMENT_SET_NO":"999","MEAN_MOTION_DDOT":"0.0000000000000","TLE_LINE2":"2 44945  53.0548 199.5053 0001814  48.4724 311.6420 15.06402754126828","OBJECT_ID":"2020-001AH","LAUNCH_DATE":"2020-01-07","EPHEMERIS_TYPE":"0","DECAY_DATE":null,"REV_AT_EPOCH":"12682","MEAN_MOTION":"15.06402754","SITE":"AFETR","ECCENTRICITY":"0.00018140","TIME_SYSTEM":"UTC","PERIOD":"95.592","OBJECT_TYPE":"PAYLOAD","SEMIMAJOR_AXIS":"6925.340","RA_OF_ASC_NODE":"199.5053","FILE":"3414186","TLE_LINE1":"1 44945U 20001AH  22114.53093583 -.00000017  00000-0  17795-4 0  9997"},{"TIME_SYSTEM":"UTC","PERIOD":"95.217","SEMIMAJOR_AXIS":"6907.228","OBJECT_TYPE":"PAYLOAD","FILE":"3414186","TLE_LINE1":"1 44946U 20001AJ  22114.19789830  .00028703  00000-0  16478-2 0  9993","RA_OF_ASC_NODE":"191.9849","TLE_LINE2":"2 44946  53.0034 191.9849 0001958  49.3854 310.7307 15.12331677126872","OBJECT_ID":"2020-001AJ","DECAY_DATE":null,"REV_AT_EPOCH":"12687","LAUNCH_DATE":"2020-01-07","EPHEMERIS_TYPE":"0","MEAN_MOTION":"15.12331677","SITE":"AFETR","ECCENTRICITY":"0.00019580","CENTER_NAME":"EARTH","RCS_SIZE":"LARGE","REF_FRAME":"TEME","BSTAR":"0.00164780000000","GP_ID":"201934052","ARG_OF_PERICENTER":"49.3854","NORAD_CAT_ID":"44946","ELEMENT_SET_NO":"999","MEAN_MOTION_DDOT":"0.0000000000000","PERIAPSIS":"527.741","APOAPSIS":"530.446","MEAN_MOTION_DOT":"0.00028703","OBJECT_NAME":"STARLINK-1110","MEAN_ELEMENT_THEORY":"SGP4","EPOCH":"2022-04-24T04:44:58.413120","INCLINATION":"53.0034","COUNTRY_CODE":"US","MEAN_ANOMALY":"310.7307","CLASSIFICATION_TYPE":"U"},{"PERIOD":"95.592","TIME_SYSTEM":"UTC","FILE":"3414509","TLE_LINE1":"1 44947U 20001AK  22114.42035714 -.00001038  00000-0 -50768-4 0  9991","RA_OF_ASC_NODE":"199.9973","SEMIMAJOR_AXIS":"6925.324","OBJECT_TYPE":"PAYLOAD","DECAY_DATE":null,"REV_AT_EPOCH":"12681","EPHEMERIS_TYPE":"0","LAUNCH_DATE":"2020-01-07","TLE_LINE2":"2 44947  53.0545 199.9973 0001606  58.0708 302.0437 15.06408006126817","OBJECT_ID":"2020-001AK","ECCENTRICITY":"0.00016060","MEAN_MOTION":"15.06408006","SITE":"AFETR","BSTAR":"-0.00005076800000","GP_ID":"201946066","ARG_OF_PERICENTER":"58.0708","NORAD_CAT_ID":"44947","CENTER_NAME":"EARTH","RCS_SIZE":"LARGE","REF_FRAME":"TEME","ELEMENT_SET_NO":"999","MEAN_MOTION_DDOT":"0.0000000000000","PERIAPSIS":"546.077","OBJECT_NAME":"STARLINK-1116","EPOCH":"2022-04-24T10:05:18.856896","MEAN_ELEMENT_THEORY":"SGP4","APOAPSIS":"548.301","MEAN_MOTION_DOT":"-0.00001038","CLASSIFICATION_TYPE":"U","INCLINATION":"53.0545","COUNTRY_CODE":"US","MEAN_ANOMALY":"302.0437"},{"TIME_SYSTEM":"UTC","PERIOD":"95.591","SEMIMAJOR_AXIS":"6925.316","OBJECT_TYPE":"PAYLOAD","TLE_LINE1":"1 44949U 20001AM  22114.71155113  .00009802  00000-0  67582-3 0  9997","FILE":"3414509","RA_OF_ASC_NODE":"198.7025","OBJECT_ID":"2020-001AM","TLE_LINE2":"2 44949  53.0526 198.7025 0001785  55.0846 305.0310 15.06410602126853","REV_AT_EPOCH":"12685","DECAY_DATE":null,"LAUNCH_DATE":"2020-01-07","EPHEMERIS_TYPE":"0","SITE":"AFETR","MEAN_MOTION":"15.06410602","ECCENTRICITY":"0.00017850","CENTER_NAME":"EARTH","RCS_SIZE":"LARGE","REF_FRAME":"TEME","GP_ID":"201946562","BSTAR":"0.00067582000000","NORAD_CAT_ID":"44949","ARG_OF_PERICENTER":"55.0846","ELEMENT_SET_NO":"999","MEAN_MOTION_DDOT":"0.0000000000000","PERIAPSIS":"545.945","APOAPSIS":"548.417","MEAN_MOTION_DOT":"0.00009802","OBJECT_NAME":"STARLINK-1122","MEAN_ELEMENT_THEORY":"SGP4","EPOCH":"2022-04-24T17:04:38.017632","INCLINATION":"53.0526","MEAN_ANOMALY":"305.0310","COUNTRY_CODE":"US","CLASSIFICATION_TYPE":"U"},{"OBJECT_NAME":"STARLINK-1125","MEAN_ELEMENT_THEORY":"SGP4","EPOCH":"2022-04-24T05:47:47.689152","APOAPSIS":"543.636","MEAN_MOTION_DOT":"0.00024755","CLASSIFICATION_TYPE":"U","INCLINATION":"53.0514","MEAN_ANOMALY":"308.6034","COUNTRY_CODE":"US","BSTAR":"0.00160790000000","GP_ID":"201933802","NORAD_CAT_ID":"44950","ARG_OF_PERICENTER":"51.5092","RCS_SIZE":"LARGE","CENTER_NAME":"EARTH","REF_FRAME":"TEME","MEAN_MOTION_DDOT":"0.0000000000000","ELEMENT_SET_NO":"999","PERIAPSIS":"541.528","REV_AT_EPOCH":"12678","DECAY_DATE":null,"LAUNCH_DATE":"2020-01-07","EPHEMERIS_TYPE":"0","OBJECT_ID":"2020-001AN","TLE_LINE2":"2 44950  53.0514 200.5913 0001523  51.5092 308.6034 15.07912333126787","ECCENTRICITY":"0.00015230","SITE":"AFETR","MEAN_MOTION":"15.07912333","PERIOD":"95.496","TIME_SYSTEM":"UTC","TLE_LINE1":"1 44950U 20001AN  22114.24152418  .00024755  00000-0  16079-2 0  9990","FILE":"3414186","RA_OF_ASC_NODE":"200.5913","SEMIMAJOR_AXIS":"6920.717","OBJECT_TYPE":"PAYLOAD"},{"MEAN_MOTION_DOT":"0.00024543","APOAPSIS":"531.488","EPOCH":"2022-04-24T11:32:14.121600","MEAN_ELEMENT_THEORY":"SGP4","OBJECT_NAME":"STARLINK-1126","MEAN_ANOMALY":"304.6922","COUNTRY_CODE":"US","INCLINATION":"53.0031","CLASSIFICATION_TYPE":"U","REF_FRAME":"TEME","RCS_SIZE":"LARGE","CENTER_NAME":"EARTH","NORAD_CAT_ID":"44951","ARG_OF_PERICENTER":"55.4262","BSTAR":"0.00142490000000","GP_ID":"201911127","PERIAPSIS":"528.657","MEAN_MOTION_DDOT":"0.0000000000000","ELEMENT_SET_NO":"999","TLE_LINE2":"2 44951  53.0031 191.4340 0002049  55.4262 304.6922 15.12010100128196","OBJECT_ID":"2020-001AP","EPHEMERIS_TYPE":"0","LAUNCH_DATE":"2020-01-07","DECAY_DATE":null,"REV_AT_EPOCH":"12819","MEAN_MOTION":"15.12010100","SITE":"AFETR","ECCENTRICITY":"0.00020490","TIME_SYSTEM":"UTC","PERIOD":"95.237","OBJECT_TYPE":"PAYLOAD","SEMIMAJOR_AXIS":"6908.208","RA_OF_ASC_NODE":"191.4340","FILE":"3414080","TLE_LINE1":"1 44951U 20001AP  22114.48071900  .00024543  00000-0  14249-2 0  9995"},{"CLASSIFICATION_TYPE":"U","MEAN_ANOMALY":"312.6588","COUNTRY_CODE":"US","INCLINATION":"53.0543","EPOCH":"2022-04-24T11:51:29.299104","MEAN_ELEMENT_THEORY":"SGP4","OBJECT_NAME":"STARLINK-1117","MEAN_MOTION_DOT":"-0.00001440","APOAPSIS":"548.501","PERIAPSIS":"545.957","ELEMENT_SET_NO":"999","MEAN_MOTION_DDOT":"0.0000000000000","ARG_OF_PERICENTER":"47.4556","NORAD_CAT_ID":"44952","BSTAR":"-0.00007779500000","GP_ID":"201932801","REF_FRAME":"TEME","CENTER_NAME":"EARTH","RCS_SIZE":"LARGE","ECCENTRICITY":"0.00018370","MEAN_MOTION":"15.06394865","SITE":"AFETR","EPHEMERIS_TYPE":"0","LAUNCH_DATE":"2020-01-07","DECAY_DATE":null,"REV_AT_EPOCH":"12682","TLE_LINE2":"2 44952  53.0543 199.6790 0001837  47.4556 312.6588 15.06394865126826","OBJECT_ID":"2020-001AQ","RA_OF_ASC_NODE":"199.6790","FILE":"3414186","TLE_LINE1":"1 44952U 20001AQ  22114.49408911 -.00001440  00000-0 -77795-4 0  9993","OBJECT_TYPE":"PAYLOAD","SEMIMAJOR_AXIS":"6925.364","PERIOD":"95.592","TIME_SYSTEM":"UTC"}];
